GSAT0101 (PRN E11)      
1 37846U 11060A   20297.41416829 -.00000093  00000-0  00000-0 0  9994
2 37846  56.7079  37.7728 0000786 324.9700  35.0307  1.70475265 55953
GSAT0102 (PRN E12)      
1 37847U 11060B   20296.28946368 -.00000089  00000-0  00000-0 0  9990
2 37847  56.7078  37.8031 0002672 291.1934 144.6845  1.70475362 55942
GSAT0103 (PRN E19)      
1 38857U 12055A   20296.86960861  .00000019  00000-0  00000+0 0  9996
2 38857  54.9956 158.2747 0001362 259.5950 100.4769  1.70473830 49982
GSAT0104 (PRN E20)      
1 38858U 12055B   20297.97716660  .00000022  00000-0  00000-0 0  9991
2 38858  54.9970 158.2436 0000202 317.1291  42.9565  1.70473820 50003
GSAT0201 (PRN E18)      
1 40128U 14050A   20298.22269730 -.00000113  00000-0  00000-0 0  9993
2 40128  50.5465 356.2380 1657446 103.6014 275.3451  1.85519192 40065
GSAT0202 (PRN E14)      
1 40129U 14050B   20296.32995522 -.00000112  00000-0  00000-0 0  9997
2 40129  50.5822 355.3549 1655257 104.3538 274.5390  1.85519793 42160
GSAT0203 (PRN E26)      
1 40544U 15017A   20297.78187782 -.00000094  00000-0  00000-0 0  9993
2 40544  56.5017  37.8787 0004311 229.6597 130.3081  1.70475107 34041
GSAT0204 (PRN E22)      
1 40545U 15017B   20296.38971293 -.00000090  00000-0  00000-0 0  9993
2 40545  56.5076  37.9334 0003570 192.4992 167.4985  1.70475205 34681
GSAT0205 (PRN E24)      
1 40889U 15045A   20297.21837153 -.00000010  00000-0  00000-0 0  9996
2 40889  56.0566 278.5811 0004165 339.3284  20.6399  1.70474791 31844
GSAT0206 (PRN E30)      
1 40890U 15045B   20296.26474632 -.00000008  00000-0  00000-0 0  9998
2 40890  56.0563 278.6037 0003258 313.8877  46.0685  1.70474757 31854
GSAT0209 (PRN E09)      
1 41174U 15079A   20297.61160897  .00000021  00000-0  00000-0 0  9990
2 41174  55.0111 157.9530 0003246 337.7743  22.2984  1.70473057 29788
GSAT0208 (PRN E08)      
1 41175U 15079B   20297.24475626  .00000020  00000-0  00000-0 0  9998
2 41175  55.0095 157.9626 0002586 346.4197  13.6602  1.70473033 30194
GSAT0211 (PRN E02)      
1 41549U 16030A   20297.36585550 -.00000010  00000-0  00000-0 0  9992
2 41549  56.1982 278.4430 0005015 299.6847  60.2506  1.70474579 27507
GSAT0210 (PRN E01)      
1 41550U 16030B   20297.07215152 -.00000009  00000-0  00000+0 0  9997
2 41550  56.1980 278.4529 0004859 277.0866  82.8430  1.70474543 27475
GSAT0207 (PRN E07)      
1 41859U 16069A   20297.90441613  .00000021  00000-0  00000-0 0  9990
2 41859  54.6695 158.2754 0002686 320.9314  39.1362  1.70473011 24408
GSAT0212 (PRN E03)      
1 41860U 16069B   20297.75786620  .00000021  00000-0  00000-0 0  9995
2 41860  54.6661 158.2783 0002695   1.5330 358.5547  1.70473039 24497
GSAT0213 (PRN E04)      
1 41861U 16069C   20298.12360473  .00000023  00000-0  00000-0 0  9994
2 41861  54.6694 158.2723 0001536 283.0872  76.9830  1.70473199 24504
GSAT0214 (PRN E05)      
1 41862U 16069D   20297.09749953  .00000019  00000-0  00000+0 0  9998
2 41862  54.6676 158.2961 0000944 311.0462  49.0326  1.70473065 24477
GSAT0215 (PRN E21)      
1 43055U 17079A   20297.58719074 -.00000011  00000-0  00000-0 0  9995
2 43055  56.1732 278.2787 0004199 273.4854  86.4520  1.70473714 17827
GSAT0216 (PRN E25)      
1 43056U 17079B   20297.29327194 -.00000010  00000-0  00000+0 0  9990
2 43056  56.1739 278.2865 0006068 273.6379  86.2778  1.70473843 17807
GSAT0217 (PRN E27)      
1 43057U 17079C   20298.09993372 -.00000013  00000-0  00000+0 0  9990
2 43057  56.1709 278.2648 0005574 282.9634  76.9599  1.70473875 17837
GSAT0218 (PRN E31)      
1 43058U 17079D   20297.14676497 -.00000010  00000-0  00000-0 0  9990
2 43058  56.1722 278.2883 0006497 271.0398  88.8705  1.70473790 17843
GSAT0221 (PRN E15)      
1 43564U 18060A   20297.04617121 -.00000092  00000-0  00000-0 0  9991
2 43564  56.8880  37.5596 0004322 249.6871 110.2732  1.70476175 14001
GSAT0222 (PRN E33)      
1 43565U 18060B   20298.43918182 -.00000095  00000-0  00000+0 0  9999
2 43565  56.8911  37.5212 0003844 256.3631 103.5992  1.70476233 14063
GSAT0219 (PRN E36)      
1 43566U 18060C   20297.48637598 -.00000093  00000-0  00000-0 0  9992
2 43566  56.8910  37.5490 0003730 248.7596 111.2067  1.70476063 14026
GSAT0220 (PRN E13)      
1 43567U 18060D   20297.70626746 -.00000094  00000-0  00000-0 0  9992
2 43567  56.8911  37.5427 0003683 249.4237 110.5427  1.70476033 14013
